CCSDS_OMM_VERS = 2.0
CREATION_DATE  = 
ORIGINATOR     = 

OBJECT_NAME    = STARLINK-36344
OBJECT_ID      = 2026-025T
CENTER_NAME    = EARTH
REF_FRAME      = TEME
TIME_SYSTEM    = UTC
MEAN_ELEMENT_THEORY = SGP/SGP4

EPOCH          = 2026-02-24T22:00:01.999584
MEAN_MOTION    = 15.80876103
ECCENTRICITY   = .00016958
INCLINATION    = 97.2812
RA_OF_ASC_NODE = 166.8942
ARG_OF_PERICENTER = 88.3493
MEAN_ANOMALY   = 198.2648

EPHEMERIS_TYPE = 0
CLASSIFICATION_TYPE = U
NORAD_CAT_ID   = 67710
ELEMENT_SET_NO = 999
REV_AT_EPOCH   = 395
BSTAR          = -.36570462E-3
MEAN_MOTION_DOT = -.69829E-3
MEAN_MOTION_DDOT = 0

CCSDS_OMM_VERS = 2.0
CREATION_DATE  = 
ORIGINATOR     = 

OBJECT_NAME    = STARLINK-36687
OBJECT_ID      = 2026-025U
CENTER_NAME    = EARTH
REF_FRAME      = TEME
TIME_SYSTEM    = UTC
MEAN_ELEMENT_THEORY = SGP/SGP4

EPOCH          = 2026-02-24T22:00:01.999584
MEAN_MOTION    = 15.80889038
ECCENTRICITY   = .00016696
INCLINATION    = 97.2813
RA_OF_ASC_NODE = 166.8989
ARG_OF_PERICENTER = 102.6975
MEAN_ANOMALY   = 195.2580

EPHEMERIS_TYPE = 0
CLASSIFICATION_TYPE = U
NORAD_CAT_ID   = 67711
ELEMENT_SET_NO = 999
REV_AT_EPOCH   = 395
BSTAR          = -.4808604E-3
MEAN_MOTION_DOT = -.916E-3
MEAN_MOTION_DDOT = 0

CCSDS_OMM_VERS = 2.0
CREATION_DATE  = 
ORIGINATOR     = 

OBJECT_NAME    = STARLINK-36705
OBJECT_ID      = 2026-025V
CENTER_NAME    = EARTH
REF_FRAME      = TEME
TIME_SYSTEM    = UTC
MEAN_ELEMENT_THEORY = SGP/SGP4

EPOCH          = 2026-02-24T22:00:01.999584
MEAN_MOTION    = 15.81282118
ECCENTRICITY   = .00015254
INCLINATION    = 97.2755
RA_OF_ASC_NODE = 166.9075
ARG_OF_PERICENTER = 105.0478
MEAN_ANOMALY   = 219.8247

EPHEMERIS_TYPE = 0
CLASSIFICATION_TYPE = U
NORAD_CAT_ID   = 67712
ELEMENT_SET_NO = 999
REV_AT_EPOCH   = 386
BSTAR          = -.10533066E-1
MEAN_MOTION_DOT = -.1814061E-1
MEAN_MOTION_DDOT = 0

CCSDS_OMM_VERS = 2.0
CREATION_DATE  = 
ORIGINATOR     = 

OBJECT_NAME    = STARLINK-36708
OBJECT_ID      = 2026-025W
CENTER_NAME    = EARTH
REF_FRAME      = TEME
TIME_SYSTEM    = UTC
MEAN_ELEMENT_THEORY = SGP/SGP4

EPOCH          = 2026-02-24T22:00:01.999584
MEAN_MOTION    = 15.80802847
ECCENTRICITY   = .00015551
INCLINATION    = 97.2759
RA_OF_ASC_NODE = 166.9222
ARG_OF_PERICENTER = 83.8178
MEAN_ANOMALY   = 274.8691

EPHEMERIS_TYPE = 0
CLASSIFICATION_TYPE = U
NORAD_CAT_ID   = 67713
ELEMENT_SET_NO = 999
REV_AT_EPOCH   = 386
BSTAR          = .34545011E-3
MEAN_MOTION_DOT = .66495E-3
MEAN_MOTION_DDOT = 0

CCSDS_OMM_VERS = 2.0
CREATION_DATE  = 
ORIGINATOR     = 

OBJECT_NAME    = STARLINK-36702
OBJECT_ID      = 2026-025X
CENTER_NAME    = EARTH
REF_FRAME      = TEME
TIME_SYSTEM    = UTC
MEAN_ELEMENT_THEORY = SGP/SGP4

EPOCH          = 2026-02-24T22:00:01.999584
MEAN_MOTION    = 15.80847326
ECCENTRICITY   = .00014172
INCLINATION    = 97.2762
RA_OF_ASC_NODE = 166.9175
ARG_OF_PERICENTER = 105.1146
MEAN_ANOMALY   = 243.2058

EPHEMERIS_TYPE = 0
CLASSIFICATION_TYPE = U
NORAD_CAT_ID   = 67714
ELEMENT_SET_NO = 999
REV_AT_EPOCH   = 359
BSTAR          = -.21438631E-3
MEAN_MOTION_DOT = -.41073E-3
MEAN_MOTION_DDOT = 0

CCSDS_OMM_VERS = 2.0
CREATION_DATE  = 
ORIGINATOR     = 

OBJECT_NAME    = STARLINK-36718
OBJECT_ID      = 2026-025Y
CENTER_NAME    = EARTH
REF_FRAME      = TEME
TIME_SYSTEM    = UTC
MEAN_ELEMENT_THEORY = SGP/SGP4

EPOCH          = 2026-02-24T22:00:01.999584
MEAN_MOTION    = 15.80823765
ECCENTRICITY   = .00014539
INCLINATION    = 97.2735
RA_OF_ASC_NODE = 166.9337
ARG_OF_PERICENTER = 78.3494
MEAN_ANOMALY   = 305.0683

EPHEMERIS_TYPE = 0
CLASSIFICATION_TYPE = U
NORAD_CAT_ID   = 67715
ELEMENT_SET_NO = 999
REV_AT_EPOCH   = 380
BSTAR          = .63626864E-4
MEAN_MOTION_DOT = .12067E-3
MEAN_MOTION_DDOT = 0

CCSDS_OMM_VERS = 2.0
CREATION_DATE  = 
ORIGINATOR     = 

OBJECT_NAME    = STARLINK-36715
OBJECT_ID      = 2026-025Z
CENTER_NAME    = EARTH
REF_FRAME      = TEME
TIME_SYSTEM    = UTC
MEAN_ELEMENT_THEORY = SGP/SGP4

EPOCH          = 2026-02-24T22:00:01.999584
MEAN_MOTION    = 15.80877543
ECCENTRICITY   = .00009869
INCLINATION    = 97.2768
RA_OF_ASC_NODE = 166.9282
ARG_OF_PERICENTER = 84.6220
MEAN_ANOMALY   = 287.0522

EPHEMERIS_TYPE = 0
CLASSIFICATION_TYPE = U
NORAD_CAT_ID   = 67716
ELEMENT_SET_NO = 999
REV_AT_EPOCH   = 386
BSTAR          = -.3989689E-3
MEAN_MOTION_DOT = -.76111E-3
MEAN_MOTION_DDOT = 0

CCSDS_OMM_VERS = 2.0
CREATION_DATE  = 
ORIGINATOR     = 

OBJECT_NAME    = STARLINK-36385
OBJECT_ID      = 2026-025AA
CENTER_NAME    = EARTH
REF_FRAME      = TEME
TIME_SYSTEM    = UTC
MEAN_ELEMENT_THEORY = SGP/SGP4

EPOCH          = 2026-02-24T22:00:01.999584
MEAN_MOTION    = 15.80793401
ECCENTRICITY   = .00014387
INCLINATION    = 97.2773
RA_OF_ASC_NODE = 166.9140
ARG_OF_PERICENTER = 88.4395
MEAN_ANOMALY   = 247.6798

EPHEMERIS_TYPE = 0
CLASSIFICATION_TYPE = U
NORAD_CAT_ID   = 67717
ELEMENT_SET_NO = 999
REV_AT_EPOCH   = 386
BSTAR          = .52146889E-3
MEAN_MOTION_DOT = .100802E-2
MEAN_MOTION_DDOT = 0

CCSDS_OMM_VERS = 2.0
CREATION_DATE  = 
ORIGINATOR     = 

OBJECT_NAME    = CZ-2F DEB
OBJECT_ID      = 2026-024E
CENTER_NAME    = EARTH
REF_FRAME      = TEME
TIME_SYSTEM    = UTC
MEAN_ELEMENT_THEORY = SGP/SGP4

EPOCH          = 2026-02-24T22:39:28.572480
MEAN_MOTION    = 15.19843601
ECCENTRICITY   = .02499656
INCLINATION    = 50.3160
RA_OF_ASC_NODE = 81.0889
ARG_OF_PERICENTER = 229.8948
MEAN_ANOMALY   = 127.9862

EPHEMERIS_TYPE = 0
CLASSIFICATION_TYPE = U
NORAD_CAT_ID   = 67718
ELEMENT_SET_NO = 999
REV_AT_EPOCH   = 269
BSTAR          = .33601493E-2
MEAN_MOTION_DOT = .17577E-2
MEAN_MOTION_DDOT = 0

CCSDS_OMM_VERS = 2.0
CREATION_DATE  = 
ORIGINATOR     = 

OBJECT_NAME    = CZ-2F DEB
OBJECT_ID      = 2026-024F
CENTER_NAME    = EARTH
REF_FRAME      = TEME
TIME_SYSTEM    = UTC
MEAN_ELEMENT_THEORY = SGP/SGP4

EPOCH          = 2026-02-24T21:43:00.131232
MEAN_MOTION    = 14.99625943
ECCENTRICITY   = .03252168
INCLINATION    = 49.7912
RA_OF_ASC_NODE = 83.2748
ARG_OF_PERICENTER = 220.2384
MEAN_ANOMALY   = 137.4072

EPHEMERIS_TYPE = 0
CLASSIFICATION_TYPE = U
NORAD_CAT_ID   = 67719
ELEMENT_SET_NO = 999
REV_AT_EPOCH   = 232
BSTAR          = .31622774E-2
MEAN_MOTION_DOT = .12652E-2
MEAN_MOTION_DDOT = 0

CCSDS_OMM_VERS = 2.0
CREATION_DATE  = 
ORIGINATOR     = 

OBJECT_NAME    = CZ-2F DEB
OBJECT_ID      = 2026-024G
CENTER_NAME    = EARTH
REF_FRAME      = TEME
TIME_SYSTEM    = UTC
MEAN_ELEMENT_THEORY = SGP/SGP4

EPOCH          = 2026-02-24T22:28:31.071072
MEAN_MOTION    = 14.96981691
ECCENTRICITY   = .03357559
INCLINATION    = 49.8306
RA_OF_ASC_NODE = 83.4943
ARG_OF_PERICENTER = 216.7337
MEAN_ANOMALY   = 141.0166

EPHEMERIS_TYPE = 0
CLASSIFICATION_TYPE = U
NORAD_CAT_ID   = 67720
ELEMENT_SET_NO = 999
REV_AT_EPOCH   = 264
BSTAR          = .33102716E-2
MEAN_MOTION_DOT = .128979E-2
MEAN_MOTION_DDOT = 0

CCSDS_OMM_VERS = 2.0
CREATION_DATE  = 
ORIGINATOR     = 

OBJECT_NAME    = STARLINK-36772
OBJECT_ID      = 2026-026A
CENTER_NAME    = EARTH
REF_FRAME      = TEME
TIME_SYSTEM    = UTC
MEAN_ELEMENT_THEORY = SGP/SGP4

EPOCH          = 2026-02-11T18:04:34.000320
MEAN_MOTION    = 16.07750770
ECCENTRICITY   = .00034
INCLINATION    = 97.2800
RA_OF_ASC_NODE = 95.5280
ARG_OF_PERICENTER = 259.0800
MEAN_ANOMALY   = 81.2200

EPHEMERIS_TYPE = 0
CLASSIFICATION_TYPE = U
NORAD_CAT_ID   = 67721
ELEMENT_SET_NO = 999
REV_AT_EPOCH   = 1
BSTAR          = 0
MEAN_MOTION_DOT = -.725E-5
MEAN_MOTION_DDOT = .2293429E-5

