STARLINK-36344          
1 67710U 26025T   26055.91668981 -.00069829  00000+0 -36570-3 0  9991
2 67710  97.2812 166.8942 0001695  88.3493 198.2648 15.80876103  3958
STARLINK-36687          
1 67711U 26025U   26055.91668981 -.00091600  00000+0 -48086-3 0  9999
2 67711  97.2813 166.8989 0001669 102.6975 195.2580 15.80889038  3950
STARLINK-36705          
1 67712U 26025V   26055.91668981 -.01814061  00000+0 -10533-1 0  9999
2 67712  97.2755 166.9075 0001525 105.0478 219.8247 15.81282118  3869
STARLINK-36708          
1 67713U 26025W   26055.91668981  .00066495  00000+0  34545-3 0  9998
2 67713  97.2759 166.9222 0001555  83.8178 274.8691 15.80802847  3861
STARLINK-36702          
1 67714U 26025X   26055.91668981 -.00041073  00000+0 -21439-3 0  9994
2 67714  97.2762 166.9175 0001417 105.1146 243.2058 15.80847326  3591
STARLINK-36718          
1 67715U 26025Y   26055.91668981  .00012067  00000+0  63627-4 0  9990
2 67715  97.2735 166.9337 0001453  78.3494 305.0683 15.80823765  3805
STARLINK-36715          
1 67716U 26025Z   26055.91668981 -.00076111  00000+0 -39897-3 0  9994
2 67716  97.2768 166.9282 0000986  84.6220 287.0522 15.80877543  3868
STARLINK-36385          
1 67717U 26025AA  26055.91668981  .00100802  00000+0  52147-3 0  9991
2 67717  97.2773 166.9140 0001438  88.4395 247.6798 15.80793401  3863
CZ-2F DEB               
1 67718U 26024E   26055.94408070  .00175770  00000+0  33601-2 0  9994
2 67718  50.3160  81.0889 0249965 229.8948 127.9862 15.19843601  2697
CZ-2F DEB               
1 67719U 26024F   26055.90486263  .00126520  00000+0  31623-2 0  9992
2 67719  49.7912  83.2748 0325216 220.2384 137.4072 14.99625943  2329
CZ-2F DEB               
1 67720U 26024G   26055.93647073  .00128979  00000+0  33103-2 0  9990
2 67720  49.8306  83.4943 0335755 216.7337 141.0166 14.96981691  2647
STARLINK-36772          
1 67721U 26026A   26042.75317130 -.00000725  22934-5  00000+0 0  9999
2 67721  97.2800  95.5280 0003400 259.0800  81.2200 16.07750770    15
